SARSAT 7 (NOAA 15)      
1 25338U 98030A   24080.58136918  .00000320  00000+0  15077-3 0  9993
2 25338  98.5791 109.5224 0009696 218.3684 141.6807 14.26515202344553
GPS BIIR-08             
1 27663U 03005A   24077.94841199  .00000035  00000+0  00000+0 0  9993
2 27663  55.1487 247.6236 0138340  47.0295 314.4135  2.00554777154842
GPS BIIR-11             
1 28190U 04009A   24080.49540787 -.00000036  00000+0  00000+0 0  9999
2 28190  55.5281 308.5773 0094766 144.0842  54.8622  2.00561579146526
GPS BIIR-13             
1 28474U 04045A   24080.39102850 -.00000115  00000+0  00000+0 0  9996
2 28474  55.4371 357.7638 0163422 289.8618 239.1932  2.00559949142000
SARSAT 10 (NOAA 18)     
1 28654U 05018A   24080.49396285  .00000345  00000+0  20802-3 0  9995
2 28654  98.8787 158.1872 0013335 317.2555  42.7579 14.13147008970648
GPS BIIR-14M            
1 28874U 05038A   24080.48820301 -.00000031  00000+0  00000+0 0  9998
2 28874  55.5756 306.0355 0136949 283.6719 294.7156  2.00561764135413
METEOSAT-9 (MSG-2)      
1 28912U 05049B   24080.09493769  .00000117  00000+0  00000+0 0  9998
2 28912   7.4830  61.5941 0000976 333.6239 222.8172  1.00276965 66836
GOES 13                 
1 29155U 06018A   24080.51368712  .00000067  00000+0  00000+0 0  9995
2 29155   2.3941  86.3039 0088120 251.8008 263.7913  0.99153474 35152
GPS BIIR-16M            
1 29601U 06052A   24077.76096727  .00000036  00000+0  00000+0 0  9992
2 29601  55.1746 246.6027 0087302  81.5252 279.4424  2.00561788126938
GPS BIIR-17M            
1 32260U 07047A   24080.05837427  .00000014  00000+0  00000+0 0  9994
2 32260  53.5590 113.9410 0152348  74.0423 287.7010  2.00569174120387
GPS BIIR-18M            
1 32384U 07062A   24080.16786340 -.00000033  00000+0  00000+0 0  9999
2 32384  55.7129 306.8986 0025840 146.9340  59.3601  2.00569558119080
SARSAT 12 (NOAA 19)     
1 33591U 09005A   24080.57468255  .00000333  00000+0  20314-3 0  9992
2 33591  99.0586 135.3996 0014024 178.2130 181.9094 14.12949267778851
GOES 14                 
1 35491U 09033A   24080.51721578 -.00000079  00000+0  00000+0 0  9992
2 35491   0.1301 122.0229 0002373 276.3164 217.9044  1.00271270 53905
GOES 15                 
1 36411U 10008A   24080.17410331  .00000026  00000+0  00000+0 0  9994
2 36411   0.0734  99.5142 0003212 190.6580  11.8658  1.00271959 51423
GPS BIIF-2              
1 37753U 11036A   24079.30109686 -.00000116  00000+0  00000+0 0  9998
2 37753  56.7630   3.8340 0127327  56.9694  18.1472  2.00525427 92835
GSAT0101 (GALILEO-PFM)  
1 37846U 11060A   24079.38917061 -.00000113  00000+0  00000+0 0  9997
2 37846  57.1271   3.9628 0004108   5.3149 354.6892  1.70475961 77142
GSAT0102 (GALILEO-FM2)  
1 37847U 11060B   24075.36853573 -.00000108  00000+0  00000+0 0  9993
2 37847  57.1277   4.0716 0005128 340.5417 117.7805  1.70475226 77083
LUCH 5A                 
1 37951U 11074B   24080.31646639 -.00000058  00000+0  00000+0 0  9992
2 37951   6.6554  86.3875 0002901 281.0149  91.7300  1.00271189 44846
METEOSAT-10 (MSG-3)     
1 38552U 12035B   24080.11716014 -.00000017  00000+0  00000+0 0  9996
2 38552   2.7660  60.1863 0001885 288.8582 231.3087  1.00274515 42648
SARSAT 13 (METOP-B)     
1 38771U 12049A   24080.48549407  .00000233  00000+0  12608-3 0  9994
2 38771  98.6383 139.6575 0000509  92.3719 267.7517 14.21487413596950
GPS BIIF-3              
1 38833U 12053A   24080.15133230 -.00000047  00000+0  00000+0 0  9998
2 38833  53.5124 177.1072 0149617  55.1779 306.2262  2.00557188 83013
GSAT0103 (GALILEO-FM3)  
1 38857U 12055A   24077.08212499 -.00000003  00000+0  00000+0 0  9991
2 38857  55.3621 124.1355 0005270 267.6966  92.3107  1.70473587 70991
GSAT0104 (GALILEO-FM4)  
1 38858U 12055B   24077.63792410 -.00000001  00000+0  00000+0 0  9997
2 38858  55.3638 124.1219 0003047 264.1185  95.9146  1.70473812 71000
GPS BIIF-4              
1 39166U 13023A   24080.01582486 -.00000024  00000+0  00000+0 0  9997
2 39166  55.1891 302.1712 0123429  43.5456 317.4695  2.00563358 79452
INSAT-3D                
1 39216U 13038B   24080.07340895 -.00000169  00000+0  00000+0 0  9991
2 39216   0.0265  95.4317 0002296 210.9793 340.1726  1.00272156 38867
GPS BIIF-5              
1 39533U 14008A   24080.01871794 -.00000048  00000+0  00000+0 0  9998
2 39533  53.5971 182.6979 0070789 217.8092 141.6896  2.00563106 73252
LUCH 5V                 
1 39727U 14023A   24080.00500687 -.00000281  00000+0  00000+0 0  9998
2 39727   3.0766  76.5284 0002503 283.0591 274.9802  1.00272160 36147
GPS BIIF-6              
1 39741U 14026A   24080.29671646 -.00000116  00000+0  00000+0 0  9999
2 39741  56.7112   3.3131 0032814 315.0805  44.6621  2.00574777 72112
GPS BIIF-7              
1 40105U 14045A   24079.88895206  .00000010  00000+0  00000+0 0  9991
2 40105  54.8899 121.1752 0024913 117.4126 242.9113  2.00560065 69646
GSAT0201 (GALILEO 5)    
1 40128U 14050A   24080.15363677 -.00000049  00000+0  00000+0 0  9999
2 40128  49.7468 306.6385 1607467 147.7628 223.1691  1.85519652 63120
GSAT0202 (GALILEO 6)    
1 40129U 14050B   24077.71731264 -.00000055  00000+0  00000+0 0  9996
2 40129  49.7663 305.8118 1605777 148.4767 222.2355  1.85520250 65245
GPS BIIF-8              
1 40294U 14068A   24079.25903626 -.00000020  00000+0  00000+0 0  9994
2 40294  56.3476  62.7485 0050085  59.5470 300.9517  2.00553947 68769
GLONASS-K 2             
1 40315U 14075A   24079.50467244  .00000000  00000+0  00000+0 0  9992
2 40315  63.6274 218.7929 0018989 205.3876 154.4875  2.13101353 72380
GPS BIIF-9              
1 40534U 15013A   24078.89808206  .00000014  00000+0  00000+0 0  9991
2 40534  53.3802 238.1381 0087344  29.6019 330.8573  2.00570998 65378
GSAT0203 (GALILEO 7)    
1 40544U 15017A   24073.30254186 -.00000102  00000+0  00000+0 0  9998
2 40544  56.9221   4.0745 0004119 291.9872  67.9695  1.70475457 55122
GSAT0204 (GALILEO 8)    
1 40545U 15017B   24074.14320105 -.00000105  00000+0  00000+0 0  9990
2 40545  56.9283   4.0665 0003375 281.1733  78.7899  1.70475327 18189
GPS BIIF-10             
1 40730U 15033A   24080.55556805 -.00000023  00000+0  00000+0 0  9993
2 40730  54.6734 300.6667 0093538  18.1646 342.2142  2.00571620 63579
METEOSAT-11 (MSG-4)     
1 40732U 15034A   24080.29823618  .00000049  00000+0  00000+0 0  9993
2 40732   1.1736  66.4363 0001138 233.0466 355.3435  1.00270541 31801
GSAT0205 (GALILEO 9)    
1 40889U 15045A   24076.84456596  .00000028  00000+0  00000+0 0  9998
2 40889  55.2656 244.3185 0005887  44.3383 315.6720  1.70473651 52993
GSAT0206 (GALILEO 10)   
1 40890U 15045B   24077.65178920  .00000025  00000+0  00000+0 0  9999
2 40890  55.2631 244.2915 0003808  46.3228 313.6730  1.70473632 53033
GPS BIIF-11             
1 41019U 15062A   24080.11211788 -.00000020  00000+0  00000+0 0  9993
2 41019  56.3298  62.5677 0094781 225.3175 133.9119  2.00562421 61407
ELEKTRO-L 2             
1 41105U 15074A   24078.88963184 -.00000128  00000+0  00000+0 0  9996
2 41105   4.6117  80.5314 0002665 214.3320 187.8420  1.00271917 30288
GSAT0209 (GALILEO 12)   
1 41174U 15079A   24077.23534912 -.00000002  00000+0  00000+0 0  9999
2 41174  55.3811 123.8397 0004688 303.6832  56.3397  1.70474783 50768
GSAT0208 (GALILEO 11)   
1 41175U 15079B   24079.80139887  .00000014  00000+0  00000+0 0  9999
2 41175  55.3808 123.7672 0004204 302.1265  57.9079  1.70474704 51227
GPS BIIF-12             
1 41328U 16007A   24080.19421788  .00000014  00000+0  00000+0 0  9999
2 41328  55.0882 121.9857 0078540 237.3289 121.9815  2.00566367 59410
GSAT0211 (GALILEO 14)   
1 41549U 16030A   24079.92383859  .00000014  00000+0  00000+0 0  9995
2 41549  55.4112 244.2303 0003256  17.5548 342.4169  1.70473773 48704
GSAT0210 (GALILEO 13)   
1 41550U 16030B   24076.10899448  .00000030  00000+0  00000+0 0  9998
2 41550  55.4111 244.3364 0001211 357.6320   2.3289  1.70473751 48631
INSAT-3DR               
1 41752U 16054A   24080.07896628 -.00000090  00000+0  00000+0 0  9993
2 41752   0.0649  89.0964 0013103 192.0857 359.2995  1.00272463 27608
GSAT0207 (GALILEO 15)   
1 41859U 16069A   24079.28880607  .00000009  00000+0  00000+0 0  9997
2 41859  55.0468 123.8068 0005253 291.0669  68.9496  1.70474760 45426
GSAT0212 (GALILEO 16)   
1 41860U 16069B   24077.97003635  .00000000  00000+0  00000+0 0  9992
2 41860  55.0432 123.8399 0003501 309.7385  50.2990  1.70474967 45659
GSAT0213 (GALILEO 17)   
1 41861U 16069C   24079.51089061  .00000011  00000+0  00000+0 0  9994
2 41861  55.0466 123.8038 0005472 274.5896  85.4215  1.70473484 45543
GSAT0214 (GALILEO 18)   
1 41862U 16069D   24080.24357051  .00000017  00000+0  00000+0 0  9990
2 41862  55.0451 123.7770 0004410 276.8827  83.1444  1.70475076 45683
GOES 16                 
1 41866U 16071A   24080.47549326 -.00000261  00000+0  00000+0 0  9992
2 41866   0.0567 279.5004 0000801  92.5164 262.4251  1.00271979 26891
GSAT-17                 
1 42815U 17040B   24079.00049483 -.00000272  00000+0  00000+0 0  9992
2 42815   0.0260 101.3327 0004651 191.2934 338.0720  1.00272360 24563
GSAT0215 (GALILEO 19)   
1 43055U 17079A   24078.38663802  .00000022  00000+0  00000+0 0  9990
2 43055  55.3872 244.0959 0000679  21.5957 338.3711  1.70474454 38994
GSAT0216 (GALILEO 20)   
1 43056U 17079B   24076.91865947  .00000028  00000+0  00000+0 0  9998
2 43056  55.3883 244.1362 0001720 316.3645  43.5851  1.70474520 38986
GSAT0217 (GALILEO 21)   
1 43057U 17079C   24077.72567558  .00000025  00000+0  00000+0 0  9993
2 43057  55.3899 244.1127 0001993 346.1678  13.7908  1.70474469 38986
GSAT0218 (GALILEO 22)   
1 43058U 17079D   24077.94570381  .00000024  00000+0  00000+0 0  9995
2 43058  55.3858 244.1043 0001978 299.8245  60.1200  1.70474492 39018
GOES 17                 
1 43226U 18022A   24080.16218815 -.00000104  00000+0  00000+0 0  9990
2 43226   0.0436   1.9009 0001371 319.0583 170.9046  1.00272701 22216
GSAT0221 (GALILEO 25)   
1 43564U 18060A   24073.15310948 -.00000102  00000+0  00000+0 0  9996
2 43564  57.3028   4.0542 0005044 303.0742  56.8777  1.70475060 35093
